{
"type": "FeatureCollection",
"crs": { "type": "name", "properties": { "name": "urn:ogc:def:crs:OGC:1.3:CRS84" } },
                                                                                
"features": [
{ "type": "Feature", "properties": { "@id": "node\/60660466", "colour": "orange", "layer": "-1", "name": "Медведково", "name_be": "Мядзведкава", "name_en": "Medvedkovo", "name_ru": "Медведково" }, "geometry": { "type": "Point", "coordinates": [ 37.6614359, 55.8871578 ] } },
{ "type": "Feature", "properties": { "@id": "node\/60660469", "colour": "orange", "layer": "-4", "name": "Бабушкинская", "name_be": "Бабушкінская", "name_en": "Babushkinskaya", "name_ru": "Бабушкинская" }, "geometry": { "type": "Point", "coordinates": [ 37.6642289, 55.8696187 ] } },
{ "type": "Feature", "properties": { "@id": "node\/68916801", "colour": "blue", "layer": "-4", "name": "Партизанская", "name_be": "Партызанская", "name_en": "Partizanskaya", "name_ru": "Партизанская" }, "geometry": { "type": "Point", "coordinates": [ 37.750729, 55.788524 ] } },
{ "type": "Feature", "properties": { "@id": "node\/68937012", "colour": "blue", "layer": "-4", "name": "Семёновская", "name_be": "Сямёнаўская", "name_en": "Semyonovskaya", "name_ru": "Семёновская" }, "geometry": { "type": "Point", "coordinates": [ 37.7215967, 55.7832285 ] } },
{ "type": "Feature", "properties": { "@id": "node\/241158259", "colour": "lightblue", "layer": null, "name": "Филёвский парк", "name_be": "Філёўскі парк", "name_en": "Filyovsky Park", "name_ru": "Филёвский парк" }, "geometry": { "type": "Point", "coordinates": [ 37.4834225, 55.7394565 ] } },
{ "type": "Feature", "properties": { "@id": "node\/241158281", "colour": "lightblue", "layer": null, "name": "Багратионовская", "name_be": "Баграціёнаўская", "name_en": "Bagrationovskaya", "name_ru": "Багратионовская" }, "geometry": { "type": "Point", "coordinates": [ 37.4978443, 55.7436954 ] } },
{ "type": "Feature", "properties": { "@id": "node\/241158327", "colour": "lightblue", "layer": null, "name": "Фили", "name_be": "Філі", "name_en": "Fili", "name_ru": "Фили" }, "geometry": { "type": "Point", "coordinates": [ 37.5148876, 55.7461002 ] } },
{ "type": "Feature", "properties": { "@id": "node\/241158369", "colour": "lightblue", "layer": null, "name": "Кутузовская", "name_be": "Кутузаўская", "name_en": "Kutuzovskaya", "name_ru": "Кутузовская" }, "geometry": { "type": "Point", "coordinates": [ 37.534383, 55.7400295 ] } },
{ "type": "Feature", "properties": { "@id": "node\/241158415", "colour": "lightblue", "layer": null, "name": "Студенческая", "name_be": "Студэнцкая", "name_en": "Studencheskaya", "name_ru": "Студенческая" }, "geometry": { "type": "Point", "coordinates": [ 37.5483675, 55.7388362 ] } },
{ "type": "Feature", "properties": { "@id": "node\/242546355", "colour": "blue", "layer": "-4", "name": "Электрозаводская", "name_be": "Электразаводская", "name_en": "Elektrozavodskaya", "name_ru": "Электрозаводская" }, "geometry": { "type": "Point", "coordinates": [ 37.7038734, 55.7820537 ] } },
{ "type": "Feature", "properties": { "@id": "node\/242546356", "colour": "blue", "layer": "-4", "name": "Бауманская", "name_be": "Баўманская", "name_en": "Baumanskaya", "name_ru": "Бауманская" }, "geometry": { "type": "Point", "coordinates": [ 37.6801957, 55.7729753 ] } },
{ "type": "Feature", "properties": { "@id": "node\/242546357", "colour": "blue", "layer": "-4", "name": "Курская", "name_be": "Курская", "name_en": "Kurskaya", "name_ru": "Курская" }, "geometry": { "type": "Point", "coordinates": [ 37.658076, 55.7581501 ] } },
{ "type": "Feature", "properties": { "@id": "node\/242546475", "colour": "blue", "layer": "-4", "name": "Площадь Революции", "name_be": "Плошча Рэвалюцыі", "name_en": "Revolution Square", "name_ru": "Площадь Революции" }, "geometry": { "type": "Point", "coordinates": [ 37.6219537, 55.7567227 ] } },
{ "type": "Feature", "properties": { "@id": "node\/242546476", "colour": "blue", "layer": "-4", "name": "Арбатская", "name_be": "Арбацкая", "name_en": "Arbatskaya", "name_ru": "Арбатская" }, "geometry": { "type": "Point", "coordinates": [ 37.6068124, 55.7521277 ] } },
{ "type": "Feature", "properties": { "@id": "node\/244036218", "colour": "blue", "layer": null, "name": "Кунцевская", "name_be": "Кунцаўская", "name_en": "Kuntsevskaya", "name_ru": "Кунцевская" }, "geometry": { "type": "Point", "coordinates": [ 37.4460094, 55.7307016 ] } },
{ "type": "Feature", "properties": { "@id": "node\/244036228", "colour": "blue", "layer": "-4", "name": "Молодёжная", "name_be": "Маладзёжная", "name_en": "Molodyozhnaya", "name_ru": "Молодёжная" }, "geometry": { "type": "Point", "coordinates": [ 37.4169177, 55.7408429 ] } },
{ "type": "Feature", "properties": { "@id": "node\/244036856", "colour": "lightblue", "layer": null, "name": "Пионерская", "name_be": "Піянерская", "name_en": "Pionerskaya", "name_ru": "Пионерская" }, "geometry": { "type": "Point", "coordinates": [ 37.4671944, 55.7359279 ] } },
{ "type": "Feature", "properties": { "@id": "node\/252828224", "colour": "blue", "layer": "-4", "name": "Смоленская", "name_be": "Смаленская", "name_en": "Smolenskaya", "name_ru": "Смоленская" }, "geometry": { "type": "Point", "coordinates": [ 37.5822787, 55.7475017 ] } },
{ "type": "Feature", "properties": { "@id": "node\/252934400", "colour": "violet", "layer": "-5", "name": "Кузнецкий Мост", "name_be": "Кузнецкі мост", "name_en": "Kuznetsky Most", "name_ru": "Кузнецкий Мост" }, "geometry": { "type": "Point", "coordinates": [ 37.626016, 55.7607712 ] } },
{ "type": "Feature", "properties": { "@id": "node\/252934401", "colour": "orange", "layer": "-4", "name": "Китай-город", "name_be": "Китай-горад", "name_en": "Kitay-gorod", "name_ru": "Китай-город" }, "geometry": { "type": "Point", "coordinates": [ 37.633321, 55.7555181 ] } },
{ "type": "Feature", "properties": { "@id": "node\/253016890", "colour": "violet", "layer": "-4", "name": "Таганская", "name_be": "Таганская", "name_en": "Taganskaya", "name_ru": "Таганская" }, "geometry": { "type": "Point", "coordinates": [ 37.6518535, 55.7403822 ] } },
{ "type": "Feature", "properties": { "@id": "node\/253016891", "colour": "violet", "layer": "-2", "name": "Пролетарская", "name_be": "Пралетарская", "name_en": "Proletarskaya", "name_ru": "Пролетарская" }, "geometry": { "type": "Point", "coordinates": [ 37.6661457, 55.7317659 ] } },
{ "type": "Feature", "properties": { "@id": "node\/253016892", "colour": "violet", "layer": "-2", "name": "Волгоградский проспект", "name_be": "Валгаградскі праспект", "name_en": "Volgogradsky Prospekt", "name_ru": "Волгоградский проспект" }, "geometry": { "type": "Point", "coordinates": [ 37.6867847, 55.7253024 ] } },
{ "type": "Feature", "properties": { "@id": "node\/253016893", "colour": "violet", "layer": "-2", "name": "Текстильщики", "name_be": "Тэкстыльшчыкі", "name_en": "Tekstilshchiki", "name_ru": "Текстильщики" }, "geometry": { "type": "Point", "coordinates": [ 37.7318594, 55.7087389 ] } },
{ "type": "Feature", "properties": { "@id": "node\/253016894", "colour": "violet", "layer": "-2", "name": "Кузьминки", "name_be": "Кузьмінкі", "name_en": "Kuzminki", "name_ru": "Кузьминки" }, "geometry": { "type": "Point", "coordinates": [ 37.7657487, 55.7055754 ] } },
{ "type": "Feature", "properties": { "@id": "node\/253016895", "colour": "violet", "layer": null, "name": "Выхино", "name_be": "Выхіна", "name_en": "Vykhino", "name_ru": "Выхино" }, "geometry": { "type": "Point", "coordinates": [ 37.8179174, 55.715631 ] } },
{ "type": "Feature", "properties": { "@id": "node\/253017004", "colour": "violet", "layer": "-1", "name": "Рязанский проспект", "name_be": "Разанскі праспект", "name_en": "Ryazansky Prospekt", "name_ru": "Рязанский проспект" }, "geometry": { "type": "Point", "coordinates": [ 37.7935753, 55.7170907 ] } },
{ "type": "Feature", "properties": { "@id": "node\/253043175", "colour": "lightblue", "layer": null, "name": "Арбатская", "name_be": "Арбацкая", "name_en": "Arbatskaya", "name_ru": "Арбатская" }, "geometry": { "type": "Point", "coordinates": [ 37.6007278, 55.7518819 ] } },
{ "type": "Feature", "properties": { "@id": "node\/253045735", "colour": "lightblue", "layer": "-4", "name": "Выставочная", "name_be": "Выставачная", "name_en": "Vystavochnaya", "name_ru": "Выставочная" }, "geometry": { "type": "Point", "coordinates": [ 37.5414267, 55.7501058 ] } },
{ "type": "Feature", "properties": { "@id": "node\/253228506", "colour": "lightblue", "layer": "-2", "name": "Александровский сад", "name_be": "Аляксандраўскі Сад", "name_en": "Alexander Garden", "name_ru": "Александровский сад" }, "geometry": { "type": "Point", "coordinates": [ 37.6085276, 55.752442 ] } },
{ "type": "Feature", "properties": { "@id": "node\/253229327", "colour": "blue", "layer": "-4", "name": "Киевская", "name_be": "Кіеўская", "name_en": "Kiyevskaya", "name_ru": "Киевская" }, "geometry": { "type": "Point", "coordinates": [ 37.5667636, 55.7447153 ] } },
{ "type": "Feature", "properties": { "@id": "node\/253375111", "colour": "lightblue", "layer": "-4", "name": "Киевская", "name_be": "Кіеўская", "name_en": "Kiyevskaya", "name_ru": "Киевская" }, "geometry": { "type": "Point", "coordinates": [ 37.5662127, 55.7438529 ] } },
{ "type": "Feature", "properties": { "@id": "node\/253776238", "colour": "blue", "layer": "-4", "name": "Крылатское", "name_be": "Крылацкае", "name_en": "Krylatskoye", "name_ru": "Крылатское" }, "geometry": { "type": "Point", "coordinates": [ 37.4082585, 55.7568353 ] } },
{ "type": "Feature", "properties": { "@id": "node\/253780238", "colour": "blue", "layer": "-2", "name": "Славянский бульвар", "name_be": "Славянскі бульвар", "name_en": "Slavyansky Bulvar", "name_ru": "Славянский бульвар" }, "geometry": { "type": "Point", "coordinates": [ 37.4707354, 55.7296453 ] } },
{ "type": "Feature", "properties": { "@id": "node\/255744331", "colour": "yellow", "layer": "-4", "name": "Новогиреево", "name_be": "Навагірэева", "name_en": "Novogireyevo", "name_ru": "Новогиреево" }, "geometry": { "type": "Point", "coordinates": [ 37.8166274, 55.7517187 ] } },
{ "type": "Feature", "properties": { "@id": "node\/255744332", "colour": "yellow", "layer": "-2", "name": "Перово", "name_be": "Пярова", "name_en": "Perovo", "name_ru": "Перово" }, "geometry": { "type": "Point", "coordinates": [ 37.7864568, 55.751225 ] } },
{ "type": "Feature", "properties": { "@id": "node\/255744578", "colour": "yellow", "layer": "-4", "name": "Шоссе Энтузиастов", "name_be": "Шаша Энтузіястаў", "name_en": "Shosse Entuziastov", "name_ru": "Шоссе Энтузиастов" }, "geometry": { "type": "Point", "coordinates": [ 37.7498443, 55.757225 ] } },
{ "type": "Feature", "properties": { "@id": "node\/255856078", "colour": "lightblue", "layer": "-4", "name": "Международная", "name_be": "Міжнародная", "name_en": "Mezhdunarodnaya", "name_ru": "Международная" }, "geometry": { "type": "Point", "coordinates": [ 37.5343766, 55.7482816 ] } },
{ "type": "Feature", "properties": { "@id": "node\/259785706", "colour": "orange", "layer": "-4", "name": "Тёплый Стан", "name_be": "Цёплы Стан", "name_en": "Tyoply Stan", "name_ru": "Тёплый Стан" }, "geometry": { "type": "Point", "coordinates": [ 37.5080944, 55.6186964 ] } },
{ "type": "Feature", "properties": { "@id": "node\/259786804", "colour": "orange", "layer": "-4", "name": "Калужская", "name_be": "Калужская", "name_en": "Kaluzhskaya", "name_ru": "Калужская" }, "geometry": { "type": "Point", "coordinates": [ 37.5405847, 55.6572552 ] } },
{ "type": "Feature", "properties": { "@id": "node\/259786806", "colour": "orange", "layer": "-4", "name": "Новые Черёмушки", "name_be": "Новыя Чаромушкі", "name_en": "Novye Cheryomushki", "name_ru": "Новые Черёмушки" }, "geometry": { "type": "Point", "coordinates": [ 37.5544462, 55.6701631 ] } },
{ "type": "Feature", "properties": { "@id": "node\/264162888", "colour": "orange", "layer": "-4", "name": "Ясенево", "name_be": "Ясенева", "name_en": "Yasenevo", "name_ru": "Ясенево" }, "geometry": { "type": "Point", "coordinates": [ 37.5337173, 55.6062069 ] } },
{ "type": "Feature", "properties": { "@id": "node\/265949954", "colour": "red", "layer": "-4", "name": "Бульвар Рокоссовского", "name_be": "Бульвар Ракасоўскага", "name_en": "Bul'var Rokossovskogo", "name_ru": "Бульвар Рокоссовского" }, "geometry": { "type": "Point", "coordinates": [ 37.734442, 55.8145922 ] } },
{ "type": "Feature", "properties": { "@id": "node\/265949956", "colour": "red", "layer": "-4", "name": "Черкизовская", "name_be": "Чаркізаўская", "name_en": "Cherkizovskaya", "name_ru": "Черкизовская" }, "geometry": { "type": "Point", "coordinates": [ 37.7449408, 55.8039866 ] } },
{ "type": "Feature", "properties": { "@id": "node\/265949958", "colour": "red", "layer": "-4", "name": "Преображенская площадь", "name_be": "Прэабражэнская плошча", "name_en": "Preobrazhenskaya Ploshchad", "name_ru": "Преображенская площадь" }, "geometry": { "type": "Point", "coordinates": [ 37.7155476, 55.7964038 ] } },
{ "type": "Feature", "properties": { "@id": "node\/266835841", "colour": "green", "layer": "-1", "name": "Речной вокзал", "name_be": "Рачны вакзал", "name_en": "Rechnoy Vokzal", "name_ru": "Речной вокзал" }, "geometry": { "type": "Point", "coordinates": [ 37.4762048, 55.8548609 ] } },
{ "type": "Feature", "properties": { "@id": "node\/266835844", "colour": "green", "layer": "-1", "name": "Водный стадион", "name_be": "Водны стадыён", "name_en": "Vodny Stadion", "name_ru": "Водный стадион" }, "geometry": { "type": "Point", "coordinates": [ 37.4865846, 55.8400444 ] } },
{ "type": "Feature", "properties": { "@id": "node\/266835845", "colour": "green", "layer": "-2", "name": "Войковская", "name_be": "Войкаўская", "name_en": "Voykovskaya", "name_ru": "Войковская" }, "geometry": { "type": "Point", "coordinates": [ 37.4979002, 55.8190236 ] } },
{ "type": "Feature", "properties": { "@id": "node\/266835846", "colour": "green", "layer": "-2", "name": "Сокол", "name_be": "Сокал", "name_en": "Sokol", "name_ru": "Сокол" }, "geometry": { "type": "Point", "coordinates": [ 37.5150663, 55.8052039 ] } },
{ "type": "Feature", "properties": { "@id": "node\/266835847", "colour": "green", "layer": "-3", "name": "Аэропорт", "name_be": "Аэрапорт", "name_en": "Aeroport", "name_ru": "Аэропорт" }, "geometry": { "type": "Point", "coordinates": [ 37.5330195, 55.8003866 ] } },
{ "type": "Feature", "properties": { "@id": "node\/266835848", "colour": "green", "layer": "-4", "name": "Динамо", "name_be": "Дынама", "name_en": "Dinamo", "name_ru": "Динамо" }, "geometry": { "type": "Point", "coordinates": [ 37.5581975, 55.7896301 ] } },
{ "type": "Feature", "properties": { "@id": "node\/267334996", "colour": "red", "layer": "-4", "name": "Сокольники", "name_be": "Сакольнікі", "name_en": "Sokolniki", "name_ru": "Сокольники" }, "geometry": { "type": "Point", "coordinates": [ 37.6800522, 55.7887275 ] } },
{ "type": "Feature", "properties": { "@id": "node\/267335088", "colour": "red", "layer": "-3", "name": "Комсомольская", "name_be": "Камсамольская", "name_en": "Komsomolskaya", "name_ru": "Комсомольская" }, "geometry": { "type": "Point", "coordinates": [ 37.6562832, 55.7753307 ] } },
{ "type": "Feature", "properties": { "@id": "node\/267335089", "colour": "red", "layer": "-4", "name": "Красносельская", "name_be": "Чырвонасельская", "name_en": "Krasnoselskaya", "name_ru": "Красносельская" }, "geometry": { "type": "Point", "coordinates": [ 37.6676678, 55.780348 ] } },
{ "type": "Feature", "properties": { "@id": "node\/267335315", "colour": "red", "layer": "-4", "name": "Охотный Ряд", "name_be": "Ахотны рад", "name_en": "Okhotny Ryad", "name_ru": "Охотный Ряд" }, "geometry": { "type": "Point", "coordinates": [ 37.6162174, 55.7576858 ] } },
{ "type": "Feature", "properties": { "@id": "node\/267335316", "colour": "red", "layer": "-4", "name": "Лубянка", "name_be": "Лубянка", "name_en": "Lubyanka", "name_ru": "Лубянка" }, "geometry": { "type": "Point", "coordinates": [ 37.6277646, 55.7599123 ] } },
{ "type": "Feature", "properties": { "@id": "node\/267335317", "colour": "red", "layer": "-4", "name": "Чистые пруды", "name_be": "Чыстыя пруды", "name_en": "Chistye Prudy", "name_ru": "Чистые пруды" }, "geometry": { "type": "Point", "coordinates": [ 37.6388551, 55.7658675 ] } },
{ "type": "Feature", "properties": { "@id": "node\/267335318", "colour": "red", "layer": "-4", "name": "Красные Ворота", "name_be": "Чырвоная Брама", "name_en": "Krasnye Vorota", "name_ru": "Красные Ворота" }, "geometry": { "type": "Point", "coordinates": [ 37.6484625, 55.7689996 ] } },
{ "type": "Feature", "properties": { "@id": "node\/268521588", "colour": "orange", "layer": "-4", "name": "Свиблово", "name_be": "Свіблава", "name_en": "Sviblovo", "name_ru": "Свиблово" }, "geometry": { "type": "Point", "coordinates": [ 37.6526719, 55.8551629 ] } },
{ "type": "Feature", "properties": { "@id": "node\/268521591", "colour": "orange", "layer": "-4", "name": "Ботанический сад", "name_be": "Батанічны сад", "name_en": "Botanichesky Sad", "name_ru": "Ботанический сад" }, "geometry": { "type": "Point", "coordinates": [ 37.6383238, 55.8451534 ] } },
{ "type": "Feature", "properties": { "@id": "node\/268521606", "colour": "orange", "layer": "-4", "name": "ВДНХ", "name_be": "ВДНГ", "name_en": "VDNKh", "name_ru": "ВДНХ" }, "geometry": { "type": "Point", "coordinates": [ 37.6411767, 55.8213144 ] } },
{ "type": "Feature", "properties": { "@id": "node\/276191013", "colour": "yellow", "layer": "-4", "name": "Авиамоторная", "name_be": "Авіяматорная", "name_en": "Aviamotornaya", "name_ru": "Авиамоторная" }, "geometry": { "type": "Point", "coordinates": [ 37.7200209, 55.7520069 ] } },
{ "type": "Feature", "properties": { "@id": "node\/276191299", "colour": "yellow", "layer": "-4", "name": "Площадь Ильича", "name_be": "Плошча Ільіча", "name_en": "Ploshchad Ilyicha", "name_ru": "Площадь Ильича" }, "geometry": { "type": "Point", "coordinates": [ 37.6818989, 55.7465826 ] } },
{ "type": "Feature", "properties": { "@id": "node\/276191577", "colour": "yellow", "layer": "-4", "name": "Марксистская", "name_be": "Марксісцкая", "name_en": "Marksistskaya", "name_ru": "Марксистская" }, "geometry": { "type": "Point", "coordinates": [ 37.6526757, 55.7413164 ] } },
{ "type": "Feature", "properties": { "@id": "node\/277499098", "colour": "orange", "layer": "-4", "name": "Алексеевская", "name_be": "Аляксееўская", "name_en": "Alekseyevskaya", "name_ru": "Алексеевская" }, "geometry": { "type": "Point", "coordinates": [ 37.6387852, 55.8087762 ] } },
{ "type": "Feature", "properties": { "@id": "node\/277499099", "colour": "orange", "layer": "-4", "name": "Рижская", "name_be": "Рыжская", "name_en": "Rizhskaya", "name_ru": "Рижская" }, "geometry": { "type": "Point", "coordinates": [ 37.6362324, 55.7933296 ] } },
{ "type": "Feature", "properties": { "@id": "node\/277499848", "colour": "orange", "layer": "-4", "name": "Проспект Мира", "name_be": "Праспект Міру", "name_en": "Prospekt Mira", "name_ru": "Проспект Мира" }, "geometry": { "type": "Point", "coordinates": [ 37.632017, 55.7809058 ] } },
{ "type": "Feature", "properties": { "@id": "node\/277499849", "colour": "orange", "layer": "-4", "name": "Сухаревская", "name_be": "Сухараўская", "name_en": "Sukharevskaya", "name_ru": "Сухаревская" }, "geometry": { "type": "Point", "coordinates": [ 37.6315377, 55.7728615 ] } },
{ "type": "Feature", "properties": { "@id": "node\/277499850", "colour": "orange", "layer": "-4", "name": "Тургеневская", "name_be": "Тургенеўская", "name_en": "Turgenevskaya", "name_ru": "Тургеневская" }, "geometry": { "type": "Point", "coordinates": [ 37.6372935, 55.7661249 ] } },
{ "type": "Feature", "properties": { "@id": "node\/277499852", "colour": "orange", "layer": "-4", "name": "Третьяковская", "name_be": "Траццякоўская", "name_en": "Tretyakovskaya", "name_ru": "Третьяковская" }, "geometry": { "type": "Point", "coordinates": [ 37.6271132, 55.7410835 ] } },
{ "type": "Feature", "properties": { "@id": "node\/277499853", "colour": "orange", "layer": "-4", "name": "Октябрьская", "name_be": "Кастрычніцкая", "name_en": "Oktyabrskaya", "name_ru": "Октябрьская" }, "geometry": { "type": "Point", "coordinates": [ 37.6111677, 55.7305821 ] } },
{ "type": "Feature", "properties": { "@id": "node\/277499854", "colour": "orange", "layer": "-4", "name": "Шаболовская", "name_be": "Шабалаўская", "name_en": "Shabolovskaya", "name_ru": "Шаболовская" }, "geometry": { "type": "Point", "coordinates": [ 37.6077788, 55.7199465 ] } },
{ "type": "Feature", "properties": { "@id": "node\/278692957", "colour": "red", "layer": "-4", "name": "Кропоткинская", "name_be": "Крапоткінская", "name_en": "Kropotkinskaya", "name_ru": "Кропоткинская" }, "geometry": { "type": "Point", "coordinates": [ 37.6038081, 55.745581 ] } },
{ "type": "Feature", "properties": { "@id": "node\/278692958", "colour": "red", "layer": "-3", "name": "Библиотека имени Ленина", "name_be": "Бібліятэка імя Леніна", "name_en": "Lenin Library", "name_ru": "Библиотека имени Ленина" }, "geometry": { "type": "Point", "coordinates": [ 37.6099648, 55.7511283 ] } },
{ "type": "Feature", "properties": { "@id": "node\/278692976", "colour": "red", "layer": "-4", "name": "Парк Культуры", "name_be": "Парк культуры", "name_en": "Park Kultury", "name_ru": "Парк Культуры" }, "geometry": { "type": "Point", "coordinates": [ 37.5942043, 55.7356254 ] } },
{ "type": "Feature", "properties": { "@id": "node\/278693055", "colour": "red", "layer": "-4", "name": "Спортивная", "name_be": "Спартыўная", "name_en": "Sportivnaya", "name_ru": "Спортивная" }, "geometry": { "type": "Point", "coordinates": [ 37.5638022, 55.7233208 ] } },
{ "type": "Feature", "properties": { "@id": "node\/278693056", "colour": "red", "layer": "-4", "name": "Фрунзенская", "name_be": "Фрунзенская", "name_en": "Frunzenskaya", "name_ru": "Фрунзенская" }, "geometry": { "type": "Point", "coordinates": [ 37.5785049, 55.7269851 ] } },
{ "type": "Feature", "properties": { "@id": "node\/282411334", "colour": "orange", "layer": "-4", "name": "Ленинский проспект", "name_be": "Ленінскі праспект", "name_en": "Leninsky Prospekt", "name_ru": "Ленинский проспект" }, "geometry": { "type": "Point", "coordinates": [ 37.5861545, 55.7077144 ] } },
{ "type": "Feature", "properties": { "@id": "node\/282413851", "colour": "orange", "layer": "-4", "name": "Академическая", "name_be": "Акадэмічная", "name_en": "Akademicheskaya", "name_ru": "Академическая" }, "geometry": { "type": "Point", "coordinates": [ 37.5731868, 55.6877068 ] } },
{ "type": "Feature", "properties": { "@id": "node\/282414382", "colour": "orange", "layer": "-4", "name": "Профсоюзная", "name_be": "Прафсаюзная", "name_en": "Profsoyuznaya", "name_ru": "Профсоюзная" }, "geometry": { "type": "Point", "coordinates": [ 37.5626938, 55.6778336 ] } },
{ "type": "Feature", "properties": { "@id": "node\/282416839", "colour": "orange", "layer": "-4", "name": "Беляево", "name_be": "Бяляева", "name_en": "Belyayevo", "name_ru": "Беляево" }, "geometry": { "type": "Point", "coordinates": [ 37.5254991, 55.6427132 ] } },
{ "type": "Feature", "properties": { "@id": "node\/291686160", "colour": "brown", "layer": "-4", "name": "Октябрьская", "name_be": "Кастрычніцкая", "name_en": "Oktyabrskaya", "name_ru": "Октябрьская" }, "geometry": { "type": "Point", "coordinates": [ 37.6096583, 55.7297873 ] } },
{ "type": "Feature", "properties": { "@id": "node\/291687197", "colour": "lightblue", "layer": "-2", "name": "Смоленская", "name_be": "Смаленская", "name_en": "Smolenskaya", "name_ru": "Смоленская" }, "geometry": { "type": "Point", "coordinates": [ 37.5826441, 55.7487996 ] } },
{ "type": "Feature", "properties": { "@id": "node\/291687455", "colour": "green", "layer": "-4", "name": "Маяковская", "name_be": "Маякоўская", "name_en": "Mayakovskaya", "name_ru": "Маяковская" }, "geometry": { "type": "Point", "coordinates": [ 37.595449, 55.7700307 ] } },
{ "type": "Feature", "properties": { "@id": "node\/291689166", "colour": "gray", "layer": "-4", "name": "Цветной бульвар", "name_be": "Кветкавы бульвар", "name_en": "Tsvetnoy Bulvar", "name_ru": "Цветной бульвар" }, "geometry": { "type": "Point", "coordinates": [ 37.6177087, 55.7708287 ] } },
{ "type": "Feature", "properties": { "@id": "node\/291712231", "colour": "orange", "layer": "-4", "name": "Новоясеневская", "name_be": "Новаясенеўская", "name_en": "Novoyasenevskaya", "name_ru": "Новоясеневская" }, "geometry": { "type": "Point", "coordinates": [ 37.5542998, 55.6008968 ] } },
{ "type": "Feature", "properties": { "@id": "node\/292019726", "colour": "green", "layer": "-4", "name": "Павелецкая", "name_be": "Павялецкая", "name_en": "Paveletskaya", "name_ru": "Павелецкая" }, "geometry": { "type": "Point", "coordinates": [ 37.6374601, 55.7305818 ] } },
{ "type": "Feature", "properties": { "@id": "node\/292019996", "colour": "brown", "layer": "-4", "name": "Павелецкая", "name_be": "Павелецкая", "name_en": "Paveletskaya", "name_ru": "Павелецкая" }, "geometry": { "type": "Point", "coordinates": [ 37.6378319, 55.7322275 ] } },
{ "type": "Feature", "properties": { "@id": "node\/292143794", "colour": "green", "layer": "-4", "name": "Театральная", "name_be": "Тэатральная", "name_en": "Theater", "name_ru": "Театральная" }, "geometry": { "type": "Point", "coordinates": [ 37.6188537, 55.7577478 ] } },
{ "type": "Feature", "properties": { "@id": "node\/292143796", "colour": "green", "layer": "-4", "name": "Новокузнецкая", "name_be": "Новакузнецкая", "name_en": "Novokuznetskaya", "name_ru": "Новокузнецкая" }, "geometry": { "type": "Point", "coordinates": [ 37.629432, 55.7414001 ] } },
{ "type": "Feature", "properties": { "@id": "node\/292144111", "colour": "green", "layer": "-4", "name": "Тверская", "name_be": "Цвярская", "name_en": "Tverskaya", "name_ru": "Тверская" }, "geometry": { "type": "Point", "coordinates": [ 37.6057622, 55.7649769 ] } },
{ "type": "Feature", "properties": { "@id": "node\/292146578", "colour": "green", "layer": "-4", "name": "Автозаводская", "name_be": "Аўтазаводская", "name_en": "Avtozavodskaya", "name_ru": "Автозаводская" }, "geometry": { "type": "Point", "coordinates": [ 37.6576204, 55.7073793 ] } },
{ "type": "Feature", "properties": { "@id": "node\/292147581", "colour": "green", "layer": "-2", "name": "Коломенская", "name_be": "Каломенская", "name_en": "Kolomenskaya", "name_ru": "Коломенская" }, "geometry": { "type": "Point", "coordinates": [ 37.6638965, 55.6784809 ] } },
{ "type": "Feature", "properties": { "@id": "node\/292147587", "colour": null, "layer": "-2", "name": "Каширская", "name_be": "Кашырская", "name_en": "Kashirskaya", "name_ru": "Каширская" }, "geometry": { "type": "Point", "coordinates": [ 37.6489241, 55.6550729 ] } },
{ "type": "Feature", "properties": { "@id": "node\/292148161", "colour": "green", "layer": null, "name": "Технопарк", "name_be": null, "name_en": null, "name_ru": null }, "geometry": { "type": "Point", "coordinates": [ 37.6644083, 55.6936272 ] } },
{ "type": "Feature", "properties": { "@id": "node\/293799708", "colour": "brown", "layer": "-4", "name": "Проспект Мира", "name_be": "Праспект Міру", "name_en": "Prospekt Mira", "name_ru": "Проспект Мира" }, "geometry": { "type": "Point", "coordinates": [ 37.633016, 55.779559 ] } },
{ "type": "Feature", "properties": { "@id": "node\/294024698", "colour": "brown", "layer": "-4", "name": "Добрынинская", "name_be": "Дабрынінская", "name_en": "Dobryninskaya", "name_ru": "Добрынинская" }, "geometry": { "type": "Point", "coordinates": [ 37.6237142, 55.729148 ] } },
{ "type": "Feature", "properties": { "@id": "node\/296045315", "colour": "brown", "layer": "-4", "name": "Таганская", "name_be": "Таганская", "name_en": "Taganskaya", "name_ru": "Таганская" }, "geometry": { "type": "Point", "coordinates": [ 37.6510227, 55.7414247 ] } },
{ "type": "Feature", "properties": { "@id": "node\/296925926", "colour": "darkgreen", "layer": "-2", "name": "Каховская", "name_be": "Кахоўская", "name_en": "Kakhovskaya", "name_ru": "Каховская" }, "geometry": { "type": "Point", "coordinates": [ 37.5981698, 55.6529571 ] } },
{ "type": "Feature", "properties": { "@id": "node\/296926132", "colour": "darkgreen", "layer": "-2", "name": "Варшавская", "name_be": "Варшаўская", "name_en": "Varshavskaya", "name_ru": "Варшавская" }, "geometry": { "type": "Point", "coordinates": [ 37.619219, 55.6534029 ] } },
{ "type": "Feature", "properties": { "@id": "node\/296932663", "colour": "lightblue", "layer": "1", "name": "Улица Скобелевская", "name_be": "Вуліца Скобелеўская", "name_en": "Ulitsa Skobelevskaya", "name_ru": "Улица Скобелевская" }, "geometry": { "type": "Point", "coordinates": [ 37.5545984, 55.5481606 ] } },
{ "type": "Feature", "properties": { "@id": "node\/296932668", "colour": "lightblue", "layer": "1", "name": "Бульвар Адмирала Ушакова", "name_be": "Бульвар адмірала Ушакова", "name_en": "Bulvar Admirala Ushakova", "name_ru": "Бульвар Адмирала Ушакова" }, "geometry": { "type": "Point", "coordinates": [ 37.5431878, 55.5454833 ] } },
{ "type": "Feature", "properties": { "@id": "node\/296932670", "colour": "lightblue", "layer": "1", "name": "Улица Горчакова", "name_be": "Вуліца Гарчакова", "name_en": "Ulitsa Gorchakova", "name_ru": "Улица Горчакова" }, "geometry": { "type": "Point", "coordinates": [ 37.5306687, 55.5417384 ] } },
{ "type": "Feature", "properties": { "@id": "node\/296932673", "colour": "lightblue", "layer": "1", "name": "Бунинская аллея", "name_be": "Бунінская алея", "name_en": "Buninskaya Alleya", "name_ru": "Бунинская аллея" }, "geometry": { "type": "Point", "coordinates": [ 37.5165046, 55.5381944 ] } },
{ "type": "Feature", "properties": { "@id": "node\/296938973", "colour": "blue", "layer": "-4", "name": "Строгино", "name_be": "Страгіно", "name_en": "Strogino", "name_ru": "Строгино" }, "geometry": { "type": "Point", "coordinates": [ 37.4031859, 55.8037346 ] } },
{ "type": "Feature", "properties": { "@id": "node\/296944258", "colour": "lightgreen", "layer": "-4", "name": "Трубная", "name_be": "Трубная", "name_en": "Trubnaya", "name_ru": "Трубная" }, "geometry": { "type": "Point", "coordinates": [ 37.6192676, 55.7691817 ] } },
{ "type": "Feature", "properties": { "@id": "node\/296944266", "colour": "lightgreen", "layer": "-4", "name": "Чкаловская", "name_be": "Чкалаўская", "name_en": "Chkalovskaya", "name_ru": "Чкаловская" }, "geometry": { "type": "Point", "coordinates": [ 37.6565119, 55.7568458 ] } },
{ "type": "Feature", "properties": { "@id": "node\/296947177", "colour": "lightgreen", "layer": "-4", "name": "Римская", "name_be": "Рымская", "name_en": "Rimskaya", "name_ru": "Римская" }, "geometry": { "type": "Point", "coordinates": [ 37.6831258, 55.746413 ] } },
{ "type": "Feature", "properties": { "@id": "node\/296947185", "colour": "lightgreen", "layer": "-4", "name": "Дубровка", "name_be": "Дуброўка", "name_en": "Dubrovka", "name_ru": "Дубровка" }, "geometry": { "type": "Point", "coordinates": [ 37.6755893, 55.7189008 ] } },
{ "type": "Feature", "properties": { "@id": "node\/296949274", "colour": "lightgreen", "layer": "-2", "name": "Кожуховская", "name_be": "Кажухаўская", "name_en": "Kozhukhovskaya", "name_ru": "Кожуховская" }, "geometry": { "type": "Point", "coordinates": [ 37.6845235, 55.7075314 ] } },
{ "type": "Feature", "properties": { "@id": "node\/296949278", "colour": "lightgreen", "layer": "-1", "name": "Печатники", "name_be": "Пячатнікі", "name_en": "Pechatniki", "name_ru": "Печатники" }, "geometry": { "type": "Point", "coordinates": [ 37.7267743, 55.6933448 ] } },
{ "type": "Feature", "properties": { "@id": "node\/296949283", "colour": "lightgreen", "layer": "-2", "name": "Волжская", "name_be": "Волжская", "name_en": "Volzhskaya", "name_ru": "Волжская" }, "geometry": { "type": "Point", "coordinates": [ 37.7532713, 55.6907877 ] } },
{ "type": "Feature", "properties": { "@id": "node\/296949285", "colour": "lightgreen", "layer": "-2", "name": "Люблино", "name_be": "Любліно", "name_en": "Lyublino", "name_ru": "Люблино" }, "geometry": { "type": "Point", "coordinates": [ 37.7618058, 55.6756376 ] } },
{ "type": "Feature", "properties": { "@id": "node\/296949290", "colour": "lightgreen", "layer": "-2", "name": "Марьино", "name_be": "Мар'іна", "name_en": "Maryino", "name_ru": "Марьино" }, "geometry": { "type": "Point", "coordinates": [ 37.7431944, 55.6500225 ] } },
{ "type": "Feature", "properties": { "@id": "node\/296953126", "colour": "gray", "layer": "-4", "name": "Чеховская", "name_be": "Чэхаўская", "name_en": "Chekhovskaya", "name_ru": "Чеховская" }, "geometry": { "type": "Point", "coordinates": [ 37.6090284, 55.7649533 ] } },
{ "type": "Feature", "properties": { "@id": "node\/296953128", "colour": "gray", "layer": "-5", "name": "Боровицкая", "name_be": "Баравіцкая", "name_en": "Borovitskaya", "name_ru": "Боровицкая" }, "geometry": { "type": "Point", "coordinates": [ 37.6069917, 55.7509241 ] } },
{ "type": "Feature", "properties": { "@id": "node\/296953130", "colour": "gray", "layer": "-4", "name": "Серпуховская", "name_be": "Серпухаўская", "name_en": "Serpukhovskaya", "name_ru": "Серпуховская" }, "geometry": { "type": "Point", "coordinates": [ 37.6249458, 55.7270198 ] } },
{ "type": "Feature", "properties": { "@id": "node\/296953131", "colour": "gray", "layer": "-2", "name": "Тульская", "name_be": "Тульская", "name_en": "Tulskaya", "name_ru": "Тульская" }, "geometry": { "type": "Point", "coordinates": [ 37.6227133, 55.7089822 ] } },
{ "type": "Feature", "properties": { "@id": "node\/296953132", "colour": "gray", "layer": "-2", "name": "Нагатинская", "name_be": "Нагацінская", "name_en": "Nagatinskaya", "name_ru": "Нагатинская" }, "geometry": { "type": "Point", "coordinates": [ 37.6227483, 55.6830582 ] } },
{ "type": "Feature", "properties": { "@id": "node\/296953133", "colour": "gray", "layer": "-2", "name": "Нагорная", "name_be": "Нагорная", "name_en": "Nagornaya", "name_ru": "Нагорная" }, "geometry": { "type": "Point", "coordinates": [ 37.6099111, 55.6719843 ] } },
{ "type": "Feature", "properties": { "@id": "node\/296953134", "colour": "gray", "layer": "-2", "name": "Нахимовский проспект", "name_be": "Нахімаўскіі праспект", "name_en": "Nakhimovsky Prospekt", "name_ru": "Нахимовский проспект" }, "geometry": { "type": "Point", "coordinates": [ 37.605443, 55.6626636 ] } },
{ "type": "Feature", "properties": { "@id": "node\/296953135", "colour": "gray", "layer": "-2", "name": "Севастопольская", "name_be": "Севастопальская", "name_en": "Sevastopolskaya", "name_ru": "Севастопольская" }, "geometry": { "type": "Point", "coordinates": [ 37.598314, 55.6520286 ] } },
{ "type": "Feature", "properties": { "@id": "node\/296953136", "colour": "gray", "layer": "-3", "name": "Чертановская", "name_be": "Чартанаўская", "name_en": "Chertanovskaya", "name_ru": "Чертановская" }, "geometry": { "type": "Point", "coordinates": [ 37.6066299, 55.640263 ] } },
{ "type": "Feature", "properties": { "@id": "node\/296953137", "colour": "gray", "layer": "-2", "name": "Южная", "name_be": "Паўднёвая", "name_en": "Yuzhnaya", "name_ru": "Южная" }, "geometry": { "type": "Point", "coordinates": [ 37.6090636, 55.6223678 ] } },
{ "type": "Feature", "properties": { "@id": "node\/296953138", "colour": "gray", "layer": "-2", "name": "Пражская", "name_be": "Праская", "name_en": "Prazhskaya", "name_ru": "Пражская" }, "geometry": { "type": "Point", "coordinates": [ 37.6044111, 55.6125623 ] } },
{ "type": "Feature", "properties": { "@id": "node\/296953139", "colour": "gray", "layer": "-2", "name": "Улица Академика Янгеля", "name_be": "Вуліца Акадэміка Янгеля", "name_en": "Ulitsa Akademika Yangelya", "name_ru": "Улица Академика Янгеля" }, "geometry": { "type": "Point", "coordinates": [ 37.6009916, 55.59521 ] } },
{ "type": "Feature", "properties": { "@id": "node\/296953140", "colour": "gray", "layer": "-2", "name": "Аннино", "name_be": "Аніна", "name_en": "Annino", "name_ru": "Аннино" }, "geometry": { "type": "Point", "coordinates": [ 37.5963663, 55.5825441 ] } },
{ "type": "Feature", "properties": { "@id": "node\/296956167", "colour": "gray", "layer": "-4", "name": "Тимирязевская", "name_be": "Ціміразеўская", "name_en": "Timiryazevskaya", "name_ru": "Тимирязевская" }, "geometry": { "type": "Point", "coordinates": [ 37.5758598, 55.8178155 ] } },
{ "type": "Feature", "properties": { "@id": "node\/296956168", "colour": "gray", "layer": "-4", "name": "Дмитровская", "name_be": "Дзмітраўская", "name_en": "Dmitrovskaya", "name_ru": "Дмитровская" }, "geometry": { "type": "Point", "coordinates": [ 37.5815683, 55.8071611 ] } },
{ "type": "Feature", "properties": { "@id": "node\/296956169", "colour": "gray", "layer": "-4", "name": "Савёловская", "name_be": "Савёлаўская", "name_en": "Savyolovskaya", "name_ru": "Савёловская" }, "geometry": { "type": "Point", "coordinates": [ 37.5881137, 55.7930087 ] } },
{ "type": "Feature", "properties": { "@id": "node\/296956170", "colour": "gray", "layer": "-4", "name": "Менделеевская", "name_be": "Мендзялееўская", "name_en": "Mendeleyevskaya", "name_ru": "Менделеевская" }, "geometry": { "type": "Point", "coordinates": [ 37.6011125, 55.7809621 ] } },
{ "type": "Feature", "properties": { "@id": "node\/296957238", "colour": "gray", "layer": "-2", "name": "Алтуфьево", "name_be": "Алтуф'ева", "name_en": "Altufyevo", "name_ru": "Алтуфьево" }, "geometry": { "type": "Point", "coordinates": [ 37.5873192, 55.8978497 ] } },
{ "type": "Feature", "properties": { "@id": "node\/296957239", "colour": "gray", "layer": "-2", "name": "Бибирево", "name_be": "Бібірава", "name_en": "Bibirevo", "name_ru": "Бибирево" }, "geometry": { "type": "Point", "coordinates": [ 37.6024384, 55.8836915 ] } },
{ "type": "Feature", "properties": { "@id": "node\/296957241", "colour": "gray", "layer": "-2", "name": "Отрадное", "name_be": "Атраднае", "name_en": "Otradnoye", "name_ru": "Отрадное" }, "geometry": { "type": "Point", "coordinates": [ 37.6048116, 55.8634532 ] } },
{ "type": "Feature", "properties": { "@id": "node\/296959502", "colour": "violet", "layer": "-1", "name": "Планерная", "name_be": "Планерная", "name_en": "Planernaya", "name_ru": "Планерная" }, "geometry": { "type": "Point", "coordinates": [ 37.4363874, 55.860731 ] } },
{ "type": "Feature", "properties": { "@id": "node\/296959504", "colour": "violet", "layer": "-2", "name": "Тушинская", "name_be": "Тушынская", "name_en": "Tushinskaya", "name_ru": "Тушинская" }, "geometry": { "type": "Point", "coordinates": [ 37.4368435, 55.826498 ] } },
{ "type": "Feature", "properties": { "@id": "node\/296959505", "colour": "violet", "layer": "-2", "name": "Щукинская", "name_be": "Шчукінская", "name_en": "Shchukinskaya", "name_ru": "Щукинская" }, "geometry": { "type": "Point", "coordinates": [ 37.4643097, 55.8085823 ] } },
{ "type": "Feature", "properties": { "@id": "node\/296959507", "colour": "violet", "layer": "-2", "name": "Полежаевская", "name_be": "Палежаеўская", "name_en": "Polezhayevskaya", "name_ru": "Полежаевская" }, "geometry": { "type": "Point", "coordinates": [ 37.5194078, 55.7775074 ] } },
{ "type": "Feature", "properties": { "@id": "node\/296959508", "colour": "violet", "layer": "-2", "name": "Беговая", "name_be": "Бегавая", "name_en": "Begovaya", "name_ru": "Беговая" }, "geometry": { "type": "Point", "coordinates": [ 37.5464401, 55.7735045 ] } },
{ "type": "Feature", "properties": { "@id": "node\/296959509", "colour": "violet", "layer": "-2", "name": "Улица 1905 года", "name_be": "Вуліца 1905 года", "name_en": "Ulitsa 1905 Goda", "name_ru": "Улица 1905 года" }, "geometry": { "type": "Point", "coordinates": [ 37.5615355, 55.7645028 ] } },
{ "type": "Feature", "properties": { "@id": "node\/296959510", "colour": "violet", "layer": "-4", "name": "Баррикадная", "name_be": "Барыкадная", "name_en": "Barrikadnaya", "name_ru": "Баррикадная" }, "geometry": { "type": "Point", "coordinates": [ 37.5798606, 55.7609017 ] } },
{ "type": "Feature", "properties": { "@id": "node\/297148038", "colour": "brown", "layer": "-4", "name": "Комсомольская", "name_be": "Камсамольская", "name_en": "Komsomolskaya", "name_ru": "Комсомольская" }, "geometry": { "type": "Point", "coordinates": [ 37.6545092, 55.7748736 ] } },
{ "type": "Feature", "properties": { "@id": "node\/297148175", "colour": "brown", "layer": "-4", "name": "Курская", "name_be": "Курская", "name_en": "Kurskaya", "name_ru": "Курская" }, "geometry": { "type": "Point", "coordinates": [ 37.6591954, 55.757283 ] } },
{ "type": "Feature", "properties": { "@id": "node\/297291268", "colour": "gray", "layer": "-2", "name": "Владыкино", "name_be": "Уладыкіна", "name_en": "Vladykino", "name_ru": "Владыкино" }, "geometry": { "type": "Point", "coordinates": [ 37.5898506, 55.8472158 ] } },
{ "type": "Feature", "properties": { "@id": "node\/297335182", "colour": "red", "layer": "1", "name": "Воробьёвы горы", "name_be": "Вераб'ёвы Горы", "name_en": "Vorobyovy Gory", "name_ru": "Воробьёвы горы" }, "geometry": { "type": "Point", "coordinates": [ 37.5591032, 55.7103574 ] } },
{ "type": "Feature", "properties": { "@id": "node\/297366493", "colour": "brown", "layer": "-4", "name": "Новослободская", "name_be": "Новаслабодская", "name_en": "Novoslobodskaya", "name_ru": "Новослободская" }, "geometry": { "type": "Point", "coordinates": [ 37.6020458, 55.7795753 ] } },
{ "type": "Feature", "properties": { "@id": "node\/297773322", "colour": "lightgreen", "layer": "-4", "name": "Крестьянская Застава", "name_be": "Сялянская Застава", "name_en": "Krestyanskaya Zastava", "name_ru": "Крестьянская Застава" }, "geometry": { "type": "Point", "coordinates": [ 37.6675064, 55.7333223 ] } },
{ "type": "Feature", "properties": { "@id": "node\/300120212", "colour": "green", "layer": "-2", "name": "Красногвардейская", "name_be": "Чырвонагвардзейская", "name_en": "Krasnogvardeyskaya", "name_ru": "Красногвардейская" }, "geometry": { "type": "Point", "coordinates": [ 37.7445335, 55.6137894 ] } },
{ "type": "Feature", "properties": { "@id": "node\/305486163", "colour": "green", "layer": "-2", "name": "Домодедовская", "name_be": "Дамадзедаўская", "name_en": "Domodedovskaya", "name_ru": "Домодедовская" }, "geometry": { "type": "Point", "coordinates": [ 37.7186583, 55.6108588 ] } },
{ "type": "Feature", "properties": { "@id": "node\/308993125", "colour": "green", "layer": "-2", "name": "Орехово", "name_be": "Арэхава", "name_en": "Orekhovo", "name_ru": "Орехово" }, "geometry": { "type": "Point", "coordinates": [ 37.6945563, 55.6133951 ] } },
{ "type": "Feature", "properties": { "@id": "node\/308993196", "colour": "green", "layer": "-2", "name": "Царицыно", "name_be": "Царыцына", "name_en": "Tsaritsyno", "name_ru": "Царицыно" }, "geometry": { "type": "Point", "coordinates": [ 37.669245, 55.6215189 ] } },
{ "type": "Feature", "properties": { "@id": "node\/308993566", "colour": "green", "layer": "-2", "name": "Кантемировская", "name_be": "Канцеміраўская", "name_en": "Kantemirovskaya", "name_ru": "Кантемировская" }, "geometry": { "type": "Point", "coordinates": [ 37.6565006, 55.6358004 ] } },
{ "type": "Feature", "properties": { "@id": "node\/309741697", "colour": "gray", "layer": "-2", "name": "Бульвар Дмитрия Донского", "name_be": "Бульвар Дзмітрыя Данскога", "name_en": "Bulvar Dmitriya Donskogo", "name_ru": "Бульвар Дмитрия Донского" }, "geometry": { "type": "Point", "coordinates": [ 37.5768339, 55.56931 ] } },
{ "type": "Feature", "properties": { "@id": "node\/309741829", "colour": "lightblue", "layer": "-2", "name": "Улица Старокачаловская", "name_be": "Вуліца Старакачалаўская", "name_en": "Ulitsa Starokachalovskaya", "name_ru": "Улица Старокачаловская" }, "geometry": { "type": "Point", "coordinates": [ 37.5770753, 55.5688378 ] } },
{ "type": "Feature", "properties": { "@id": "node\/309744779", "colour": "brown", "layer": "-4", "name": "Краснопресненская", "name_be": "Чырвонапрэсненская", "name_en": "Krasnopresnenskaya", "name_ru": "Краснопресненская" }, "geometry": { "type": "Point", "coordinates": [ 37.5773995, 55.7607561 ] } },
{ "type": "Feature", "properties": { "@id": "node\/309745114", "colour": "brown", "layer": "-4", "name": "Киевская", "name_be": "Кіеўская", "name_en": "Kiyevskaya", "name_ru": "Киевская" }, "geometry": { "type": "Point", "coordinates": [ 37.5657211, 55.7444886 ] } },
{ "type": "Feature", "properties": { "@id": "node\/309745439", "colour": "brown", "layer": "-4", "name": "Парк Культуры", "name_be": "Парк культуры", "name_en": "Park Kultury", "name_ru": "Парк Культуры" }, "geometry": { "type": "Point", "coordinates": [ 37.5914321, 55.7358678 ] } },
{ "type": "Feature", "properties": { "@id": "node\/309748905", "colour": "violet", "layer": "-2", "name": "Октябрьское Поле", "name_be": "Кастрычніцкае поле", "name_en": "Oktyabrskoye Pole", "name_ru": "Октябрьское Поле" }, "geometry": { "type": "Point", "coordinates": [ 37.4937378, 55.7933364 ] } },
{ "type": "Feature", "properties": { "@id": "node\/309750154", "colour": "violet", "layer": "-2", "name": "Сходненская", "name_be": "Сходненская", "name_en": "Skhodnenskaya", "name_ru": "Сходненская" }, "geometry": { "type": "Point", "coordinates": [ 37.4397991, 55.8503173 ] } },
{ "type": "Feature", "properties": { "@id": "node\/309752486", "colour": "red", "layer": "-4", "name": "Юго-Западная", "name_be": "Паўднёва-Заходняя", "name_en": "Yugo-Zapadnaya", "name_ru": "Юго-Западная" }, "geometry": { "type": "Point", "coordinates": [ 37.4830219, 55.6636035 ] } },
{ "type": "Feature", "properties": { "@id": "node\/309752494", "colour": "red", "layer": "-4", "name": "Университет", "name_be": "Універсітэт", "name_en": "Universitet", "name_ru": "Университет" }, "geometry": { "type": "Point", "coordinates": [ 37.5332997, 55.692752 ] } },
{ "type": "Feature", "properties": { "@id": "node\/312814742", "colour": "gray", "layer": "-4", "name": "Петровско-Разумовская", "name_be": "Пятроўска-Разумоўская", "name_en": "Petrovsko-Razumovskaya", "name_ru": "Петровско-Разумовская" }, "geometry": { "type": "Point", "coordinates": [ 37.5740878, 55.8346887 ] } },
{ "type": "Feature", "properties": { "@id": "node\/312816773", "colour": "gray", "layer": "-4", "name": "Полянка", "name_be": "Палянка", "name_en": "Polyanka", "name_ru": "Полянка" }, "geometry": { "type": "Point", "coordinates": [ 37.6184126, 55.7371794 ] } },
{ "type": "Feature", "properties": { "@id": "node\/333159878", "colour": "lightgreen", "layer": "-2", "name": "Братиславская", "name_be": "Братыслаўская", "name_en": "Bratislavskaya", "name_ru": "Братиславская" }, "geometry": { "type": "Point", "coordinates": [ 37.7505301, 55.6598996 ] } },
{ "type": "Feature", "properties": { "@id": "node\/349930322", "colour": "red", "layer": "-4", "name": "Проспект Вернадского", "name_be": "Праспект Вярнацкага", "name_en": "Prospekt Vernadskogo", "name_ru": "Проспект Вернадского" }, "geometry": { "type": "Point", "coordinates": [ 37.5058395, 55.6772029 ] } },
{ "type": "Feature", "properties": { "@id": "node\/362156015", "colour": "violet", "layer": "-4", "name": "Пушкинская", "name_be": "Пушкiнская", "name_en": "Pushkinskaya", "name_ru": "Пушкинская" }, "geometry": { "type": "Point", "coordinates": [ 37.6067478, 55.7654227 ] } },
{ "type": "Feature", "properties": { "@id": "node\/493290713", "colour": "darkgreen", "layer": "-2", "name": "Каширская", "name_be": "Кашырская", "name_en": "Kashirskaya", "name_ru": "Каширская" }, "geometry": { "type": "Point", "coordinates": [ 37.6486178, 55.6552112 ] } },
{ "type": "Feature", "properties": { "@id": "node\/493292529", "colour": "yellow", "layer": "-4", "name": "Третьяковская", "name_be": "Траццякоўская", "name_en": "Tretyakovskaya", "name_ru": "Третьяковская" }, "geometry": { "type": "Point", "coordinates": [ 37.6271192, 55.7410073 ] } },
{ "type": "Feature", "properties": { "@id": "node\/493293874", "colour": "violet", "layer": "-4", "name": "Китай-город", "name_be": "Кітай-горад", "name_en": "Kitay-gorod", "name_ru": "Китай-город" }, "geometry": { "type": "Point", "coordinates": [ 37.6334116, 55.7555854 ] } },
{ "type": "Feature", "properties": { "@id": "node\/596129530", "colour": "blue", "layer": "-1", "name": "Волоколамская", "name_be": "Валакаламская", "name_en": "Volokolamskaya", "name_ru": "Волоколамская" }, "geometry": { "type": "Point", "coordinates": [ 37.3820432, 55.8356938 ] } },
{ "type": "Feature", "properties": { "@id": "node\/596129560", "colour": "blue", "layer": null, "name": "Митино", "name_be": "Міціна", "name_en": "Mitino", "name_ru": "Митино" }, "geometry": { "type": "Point", "coordinates": [ 37.3621826, 55.8458396 ] } },
{ "type": "Feature", "properties": { "@id": "node\/596129789", "colour": "blue", "layer": null, "name": "Мякинино", "name_be": "Мякініна", "name_en": "Myakinino", "name_ru": "Мякинино" }, "geometry": { "type": "Point", "coordinates": [ 37.3853347, 55.8250915 ] } },
{ "type": "Feature", "properties": { "@id": "node\/666528523", "colour": "lightgreen", "layer": "-4", "name": "Сретенский бульвар", "name_be": "Срэценскі бульвар", "name_en": "Sretensky Bulvar", "name_ru": "Сретенский бульвар" }, "geometry": { "type": "Point", "coordinates": [ 37.6398306, 55.7668232 ] } },
{ "type": "Feature", "properties": { "@id": "node\/773136965", "colour": "lightgreen", "layer": null, "name": "Марьина Роща", "name_be": "Мар'іна Рошча", "name_en": "Maryina Roshcha", "name_ru": "Марьина Роща" }, "geometry": { "type": "Point", "coordinates": [ 37.6161563, 55.7950208 ] } },
{ "type": "Feature", "properties": { "@id": "node\/773136972", "colour": "lightgreen", "layer": null, "name": "Достоевская", "name_be": "Дастаеўская", "name_en": "Dostoyevskaya", "name_ru": "Достоевская" }, "geometry": { "type": "Point", "coordinates": [ 37.6148591, 55.7812854 ] } },
{ "type": "Feature", "properties": { "@id": "node\/1157975976", "colour": "green", "layer": "-4", "name": "Белорусская", "name_be": "Беларуская", "name_en": "Belorusskaya", "name_ru": "Белорусская" }, "geometry": { "type": "Point", "coordinates": [ 37.5834397, 55.7766573 ] } },
{ "type": "Feature", "properties": { "@id": "node\/1158396469", "colour": "brown", "layer": "-4", "name": "Белорусская", "name_be": "Беларуская", "name_en": "Belorusskaya", "name_ru": "Белорусская" }, "geometry": { "type": "Point", "coordinates": [ 37.5839502, 55.7762009 ] } },
{ "type": "Feature", "properties": { "@id": "node\/1191237441", "colour": "lightblue", "layer": null, "name": "Кунцевская", "name_be": "Кунцаўская", "name_en": "Kuntsevskaya", "name_ru": "Кунцевская" }, "geometry": { "type": "Point", "coordinates": [ 37.4459574, 55.7308185 ] } },
{ "type": "Feature", "properties": { "@id": "node\/1198621087", "colour": "blue", "layer": "-4", "name": "Парк Победы", "name_be": "Парк Перамогі", "name_en": "Victory Park", "name_ru": "Парк Победы" }, "geometry": { "type": "Point", "coordinates": [ 37.5173974, 55.7365784 ] } },
{ "type": "Feature", "properties": { "@id": "node\/1221839292", "colour": "orange", "layer": "-2", "name": "Коньково", "name_be": "Канькова", "name_en": "Konkovo", "name_ru": "Коньково" }, "geometry": { "type": "Point", "coordinates": [ 37.5190729, 55.6330883 ] } },
{ "type": "Feature", "properties": { "@id": "node\/1248716467", "colour": null, "layer": "-2", "name": "Каширская", "name_be": "Кашырская", "name_en": "Kashirskaya", "name_ru": "Каширская" }, "geometry": { "type": "Point", "coordinates": [ 37.6491378, 55.6549517 ] } },
{ "type": "Feature", "properties": { "@id": "node\/1272374180", "colour": "green", "layer": "-2", "name": "Каширская", "name_be": "Кашырская", "name_en": "Kashirskaya", "name_ru": "Каширская" }, "geometry": { "type": "Point", "coordinates": [ 37.6488464, 55.6551004 ] } },
{ "type": "Feature", "properties": { "@id": "node\/1279716959", "colour": "lightblue", "layer": "-2", "name": "Улица Старокачаловская", "name_be": "Вуліца Старакачалаўская", "name_en": "Ulitsa Starokachalovskaya", "name_ru": "Улица Старокачаловская" }, "geometry": { "type": "Point", "coordinates": [ 37.5763664, 55.5689938 ] } },
{ "type": "Feature", "properties": { "@id": "node\/1527999919", "colour": "lightgreen", "layer": "-2", "name": "Борисово", "name_be": null, "name_en": "Borisovo", "name_ru": "Борисово" }, "geometry": { "type": "Point", "coordinates": [ 37.7433366, 55.6331194 ] } },
{ "type": "Feature", "properties": { "@id": "node\/1527999927", "colour": "lightgreen", "layer": "-2", "name": "Зябликово", "name_be": "Зяблікава", "name_en": "Zyablikovo", "name_ru": "Зябликово" }, "geometry": { "type": "Point", "coordinates": [ 37.745177, 55.6123108 ] } },
{ "type": "Feature", "properties": { "@id": "node\/1527999934", "colour": "lightgreen", "layer": "-2", "name": "Шипиловская", "name_be": "Шыпілаўская", "name_en": "Shipilovskaya", "name_ru": "Шипиловская" }, "geometry": { "type": "Point", "coordinates": [ 37.743772, 55.621144 ] } },
{ "type": "Feature", "properties": { "@id": "node\/1890426555", "colour": "yellow", "layer": "-4", "name": "Новокосино", "name_be": "Навакосіна", "name_en": "Novokosino", "name_ru": "Новокосино" }, "geometry": { "type": "Point", "coordinates": [ 37.864059, 55.7450752 ] } },
{ "type": "Feature", "properties": { "@id": "node\/2080924763", "colour": "green", "layer": "-2", "name": "Алма-Атинская", "name_be": "Алма-Ацінская", "name_en": "Alma-Atinskaya", "name_ru": "Алма-Атинская" }, "geometry": { "type": "Point", "coordinates": [ 37.7662722, 55.6327785 ] } },
{ "type": "Feature", "properties": { "@id": "node\/2086260190", "colour": "blue", "layer": null, "name": "Пятницкое шоссе", "name_be": null, "name_en": "Pyatnitskoye Shosse", "name_ru": "Пятницкое шоссе" }, "geometry": { "type": "Point", "coordinates": [ 37.354633, 55.8565339 ] } },
{ "type": "Feature", "properties": { "@id": "node\/2525101862", "colour": "violet", "layer": "-2", "name": "Жулебино", "name_be": null, "name_en": "Zhulebino", "name_ru": "Жулебино" }, "geometry": { "type": "Point", "coordinates": [ 37.8560615, 55.685401 ] } },
{ "type": "Feature", "properties": { "@id": "node\/2525101863", "colour": "violet", "layer": null, "name": "Лермонтовский проспект", "name_be": null, "name_en": "Lermontovsky prospekt", "name_ru": "Лермонтовский проспект" }, "geometry": { "type": "Point", "coordinates": [ 37.85189, 55.7014427 ] } },
{ "type": "Feature", "properties": { "@id": "node\/2591395115", "colour": "lightblue", "layer": "-2", "name": "Лесопарковая", "name_be": null, "name_en": "Lesoparkovaya", "name_ru": "Лесопарковая" }, "geometry": { "type": "Point", "coordinates": [ 37.5775017, 55.582095 ] } },
{ "type": "Feature", "properties": { "@id": "node\/2591402980", "colour": "lightblue", "layer": "-2", "name": "Битцевский парк", "name_be": null, "name_en": "Bitsevskiy park", "name_ru": "Битцевский парк" }, "geometry": { "type": "Point", "coordinates": [ 37.5559526, 55.6003233 ] } },
{ "type": "Feature", "properties": { "@id": "node\/2692857848", "colour": "blue", "layer": "-4", "name": "Измайловская", "name_be": "Ізмайлаўская", "name_en": "Izmaylovskaya", "name_ru": "Измайловская" }, "geometry": { "type": "Point", "coordinates": [ 37.7816023, 55.7877328 ] } },
{ "type": "Feature", "properties": { "@id": "node\/2692882978", "colour": "blue", "layer": "-4", "name": "Первомайская", "name_be": "Першамайская", "name_en": "Pervomayskaya", "name_ru": "Первомайская" }, "geometry": { "type": "Point", "coordinates": [ 37.7994658, 55.7946664 ] } },
{ "type": "Feature", "properties": { "@id": "node\/2692905506", "colour": "blue", "layer": "-4", "name": "Щёлковская", "name_be": "Шчолкаўская", "name_en": "Schelkovskaya", "name_ru": "Щёлковская" }, "geometry": { "type": "Point", "coordinates": [ 37.7986591, 55.8093302 ] } },
{ "type": "Feature", "properties": { "@id": "node\/2950850833", "colour": "yellow", "layer": "-4", "name": "Парк Победы", "name_be": "Парк Перамогі", "name_en": "Victory Park", "name_ru": "Парк Победы" }, "geometry": { "type": "Point", "coordinates": [ 37.5177569, 55.7361507 ] } },
{ "type": "Feature", "properties": { "@id": "node\/3046563958", "colour": "violet", "layer": null, "name": "Спартак", "name_be": null, "name_en": "Spartak", "name_ru": "Спартак" }, "geometry": { "type": "Point", "coordinates": [ 37.4356177, 55.8182861 ] } },
{ "type": "Feature", "properties": { "@id": "node\/3224593379", "colour": "red", "layer": "-4", "name": "Тропарёво", "name_be": null, "name_en": "Troparyovo", "name_ru": "Тропарёво" }, "geometry": { "type": "Point", "coordinates": [ 37.472545, 55.6459539 ] } },
{ "type": "Feature", "properties": { "@id": "node\/3226428878", "colour": "yellow", "layer": "-4", "name": "Деловой центр", "name_be": null, "name_en": "Delovoy Center", "name_ru": "Деловой центр" }, "geometry": { "type": "Point", "coordinates": [ 37.5397544, 55.7491646 ] } },
{ "type": "Feature", "properties": { "@id": "node\/3706464707", "colour": "violet", "layer": "-2", "name": "Котельники", "name_be": null, "name_en": null, "name_ru": null }, "geometry": { "type": "Point", "coordinates": [ 37.8578917, 55.6743957 ] } },
{ "type": "Feature", "properties": { "@id": "node\/3743138199", "colour": "blue", "layer": "-4", "name": "Парк Победы", "name_be": "Парк Перамогі", "name_en": "Victory Park", "name_ru": "Парк Победы" }, "geometry": { "type": "Point", "coordinates": [ 37.5173845, 55.7365571 ] } }
]
}
